start=new Date('2021-12-25T00:00:00.000Z').valueOf();
sats=[{"DECAY_DATE":null,"FILE":"3250462","MEAN_ELEMENT_THEORY":"SGP4","EPOCH":"2021-12-24T22:00:00.999936","TLE_LINE2":"2 48025  53.0397 272.2056 0004828 155.6209  41.4706 15.88596491  3711","COUNTRY_CODE":"US","CENTER_NAME":"EARTH","RCS_SIZE":"LARGE","MEAN_MOTION_DDOT":"0.0000000000000","CLASSIFICATION_TYPE":"U","APOAPSIS":"309.446","MEAN_ANOMALY":"41.4706","ARG_OF_PERICENTER":"155.6209","SEMIMAJOR_AXIS":"6684.354","GP_ID":"192397788","PERIAPSIS":"302.992","NORAD_CAT_ID":"48025","OBJECT_NAME":"STARLINK-2318","LAUNCH_DATE":"2021-03-24","OBJECT_TYPE":"PAYLOAD","MEAN_MOTION":"15.88596491","REF_FRAME":"TEME","RA_OF_ASC_NODE":"272.2056","PERIOD":"90.646","TLE_LINE1":"1 48025U 21024BA  21358.91667824  .00166230  00000-0  57277-3 0  9999","ELEMENT_SET_NO":"999","INCLINATION":"53.0397","REV_AT_EPOCH":"371","BSTAR":"0.00057277000000","EPHEMERIS_TYPE":"0","TIME_SYSTEM":"UTC","OBJECT_ID":"2021-024BA","ECCENTRICITY":"0.00048280","SITE":"AFETR","MEAN_MOTION_DOT":"0.00166230"},{"MEAN_MOTION_DOT":"0.00002049","ECCENTRICITY":"0.00014840","SITE":"AFETR","TIME_SYSTEM":"UTC","OBJECT_ID":"2021-024BB","EPHEMERIS_TYPE":"0","BSTAR":"0.00015647000000","INCLINATION":"53.0449","REV_AT_EPOCH":"4301","ELEMENT_SET_NO":"999","TLE_LINE1":"1 48026U 21024BB  21358.83762091  .00002049  00000-0  15647-3 0  9995","PERIOD":"95.593","RA_OF_ASC_NODE":"31.3645","REF_FRAME":"TEME","MEAN_MOTION":"15.06388134","OBJECT_TYPE":"PAYLOAD","LAUNCH_DATE":"2021-03-24","OBJECT_NAME":"STARLINK-2278","PERIAPSIS":"546.222","NORAD_CAT_ID":"48026","GP_ID":"192396536","SEMIMAJOR_AXIS":"6925.385","ARG_OF_PERICENTER":"66.4745","MEAN_ANOMALY":"293.6400","APOAPSIS":"548.278","CLASSIFICATION_TYPE":"U","MEAN_MOTION_DDOT":"0.0000000000000","RCS_SIZE":"LARGE","CENTER_NAME":"EARTH","TLE_LINE2":"2 48026  53.0449  31.3645 0001484  66.4745 293.6400 15.06388134 43019","EPOCH":"2021-12-24T20:06:10.446624","COUNTRY_CODE":"US","MEAN_ELEMENT_THEORY":"SGP4","FILE":"3250462","DECAY_DATE":null},{"COUNTRY_CODE":"US","TLE_LINE2":"2 48027  53.0566   6.8034 0001418  67.4369 292.6770 15.06367931 43346","EPOCH":"2021-12-24T17:32:55.091616","CENTER_NAME":"EARTH","RCS_SIZE":"LARGE","DECAY_DATE":null,"FILE":"3250462","MEAN_ELEMENT_THEORY":"SGP4","SEMIMAJOR_AXIS":"6925.447","GP_ID":"192396786","PERIAPSIS":"546.330","NORAD_CAT_ID":"48027","OBJECT_NAME":"STARLINK-2300","LAUNCH_DATE":"2021-03-24","MEAN_MOTION_DDOT":"0.0000000000000","CLASSIFICATION_TYPE":"U","MEAN_ANOMALY":"292.6770","APOAPSIS":"548.294","ARG_OF_PERICENTER":"67.4369","REF_FRAME":"TEME","RA_OF_ASC_NODE":"6.8034","PERIOD":"95.594","TLE_LINE1":"1 48027U 21024BC  21358.73119319  .00010125  00000-0  69826-3 0  9996","OBJECT_TYPE":"PAYLOAD","MEAN_MOTION":"15.06367931","MEAN_MOTION_DOT":"0.00010125","ELEMENT_SET_NO":"999","REV_AT_EPOCH":"4334","INCLINATION":"53.0566","BSTAR":"0.00069826000000","EPHEMERIS_TYPE":"0","OBJECT_ID":"2021-024BC","TIME_SYSTEM":"UTC","SITE":"AFETR","ECCENTRICITY":"0.00014180"},{"MEAN_MOTION":"15.06413644","OBJECT_TYPE":"PAYLOAD","PERIOD":"95.591","TLE_LINE1":"1 48028U 21024BD  21358.91667824 -.00030903  00000-0 -20640-2 0  9994","REF_FRAME":"TEME","RA_OF_ASC_NODE":"320.9670","OBJECT_ID":"2021-024BD","TIME_SYSTEM":"UTC","SITE":"AFETR","ECCENTRICITY":"0.00014140","ELEMENT_SET_NO":"999","INCLINATION":"53.0566","REV_AT_EPOCH":"357","BSTAR":"-0.00206400000000","EPHEMERIS_TYPE":"0","MEAN_MOTION_DOT":"-0.00030903","FILE":"3250462","MEAN_ELEMENT_THEORY":"SGP4","DECAY_DATE":null,"CENTER_NAME":"EARTH","RCS_SIZE":"LARGE","TLE_LINE2":"2 48028  53.0566 320.9670 0001414  72.2263 147.0329 15.06413644  3573","COUNTRY_CODE":"US","EPOCH":"2021-12-24T22:00:00.999936","MEAN_ANOMALY":"147.0329","APOAPSIS":"548.151","ARG_OF_PERICENTER":"72.2263","MEAN_MOTION_DDOT":"0.0000000000000","CLASSIFICATION_TYPE":"U","NORAD_CAT_ID":"48028","PERIAPSIS":"546.193","OBJECT_NAME":"STARLINK-2264","LAUNCH_DATE":"2021-03-24","SEMIMAJOR_AXIS":"6925.307","GP_ID":"192398037"},{"MEAN_MOTION_DOT":"-0.00001640","ELEMENT_SET_NO":"999","INCLINATION":"53.0543","REV_AT_EPOCH":"4311","EPHEMERIS_TYPE":"0","BSTAR":"-0.00009121700000","OBJECT_ID":"2021-024BE","TIME_SYSTEM":"UTC","SITE":"AFETR","ECCENTRICITY":"0.00015280","REF_FRAME":"TEME","RA_OF_ASC_NODE":"27.2400","PERIOD":"95.592","TLE_LINE1":"1 48029U 21024BE  21358.63719254 -.00001640  00000-0 -91217-4 0  9995","OBJECT_TYPE":"PAYLOAD","MEAN_MOTION":"15.06397035","SEMIMAJOR_AXIS":"6925.358","GP_ID":"192398288","PERIAPSIS":"546.164","NORAD_CAT_ID":"48029","OBJECT_NAME":"STARLINK-2299","LAUNCH_DATE":"2021-03-24","MEAN_MOTION_DDOT":"0.0000000000000","CLASSIFICATION_TYPE":"U","MEAN_ANOMALY":"291.4786","APOAPSIS":"548.281","ARG_OF_PERICENTER":"68.6365","TLE_LINE2":"2 48029  53.0543  27.2400 0001528  68.6365 291.4786 15.06397035 43115","EPOCH":"2021-12-24T15:17:33.435456","COUNTRY_CODE":"US","CENTER_NAME":"EARTH","RCS_SIZE":"LARGE","DECAY_DATE":null,"FILE":"3250462","MEAN_ELEMENT_THEORY":"SGP4"},{"MEAN_MOTION":"15.06400546","OBJECT_TYPE":"PAYLOAD","TLE_LINE1":"1 48030U 21024BF  21358.79707769  .00002844  00000-0  20977-3 0  9991","PERIOD":"95.592","RA_OF_ASC_NODE":"31.4945","REF_FRAME":"TEME","SITE":"AFETR","ECCENTRICITY":"0.00014050","OBJECT_ID":"2021-024BF","TIME_SYSTEM":"UTC","EPHEMERIS_TYPE":"0","BSTAR":"0.00020977000000","INCLINATION":"53.0549","REV_AT_EPOCH":"4300","ELEMENT_SET_NO":"999","MEAN_MOTION_DOT":"0.00002844","MEAN_ELEMENT_THEORY":"SGP4","FILE":"3250462","DECAY_DATE":null,"RCS_SIZE":"LARGE","CENTER_NAME":"EARTH","COUNTRY_CODE":"US","TLE_LINE2":"2 48030  53.0549  31.4945 0001405  70.0110 290.1030 15.06400546 43001","EPOCH":"2021-12-24T19:07:47.512416","ARG_OF_PERICENTER":"70.0110","MEAN_ANOMALY":"290.1030","APOAPSIS":"548.185","CLASSIFICATION_TYPE":"U","MEAN_MOTION_DDOT":"0.0000000000000","LAUNCH_DATE":"2021-03-24","OBJECT_NAME":"STARLINK-2268","NORAD_CAT_ID":"48030","PERIAPSIS":"546.239","GP_ID":"192397036","SEMIMAJOR_AXIS":"6925.347"},{"OBJECT_ID":"2021-024BG","TIME_SYSTEM":"UTC","SITE":"AFETR","ECCENTRICITY":"0.00015340","EPHEMERIS_TYPE":"0","BSTAR":"-0.01891200000000","ELEMENT_SET_NO":"999","INCLINATION":"53.0546","REV_AT_EPOCH":"365","MEAN_MOTION_DOT":"-0.00646461","MEAN_MOTION":"15.36979072","OBJECT_TYPE":"PAYLOAD","TLE_LINE1":"1 48031U 21024BG  21358.91667824 -.00646461  00000-0 -18912-1 0  9998","PERIOD":"93.690","RA_OF_ASC_NODE":"278.4978","REF_FRAME":"TEME","MEAN_ANOMALY":"242.5321","APOAPSIS":"456.099","ARG_OF_PERICENTER":"51.0991","CLASSIFICATION_TYPE":"U","MEAN_MOTION_DDOT":"0.0000000000000","OBJECT_NAME":"STARLINK-2267","LAUNCH_DATE":"2021-03-24","NORAD_CAT_ID":"48031","PERIAPSIS":"454.002","GP_ID":"192397286","SEMIMAJOR_AXIS":"6833.185","MEAN_ELEMENT_THEORY":"SGP4","FILE":"3250462","DECAY_DATE":null,"CENTER_NAME":"EARTH","RCS_SIZE":"MEDIUM","TLE_LINE2":"2 48031  53.0546 278.4978 0001534  51.0991 242.5321 15.36979072  3656","COUNTRY_CODE":"US","EPOCH":"2021-12-24T22:00:00.999936"},{"PERIOD":"90.520","TLE_LINE1":"1 48032U 21024BH  21358.91667824  .00013183  11152-4  52122-4 0  9994","REF_FRAME":"TEME","RA_OF_ASC_NODE":"272.7315","MEAN_MOTION":"15.90811410","OBJECT_TYPE":"PAYLOAD","MEAN_MOTION_DOT":"0.00013183","OBJECT_ID":"2021-024BH","TIME_SYSTEM":"UTC","SITE":"AFETR","ECCENTRICITY":"0.00020670","ELEMENT_SET_NO":"999","INCLINATION":"53.0396","REV_AT_EPOCH":"369","EPHEMERIS_TYPE":"0","BSTAR":"0.00005212200000","CENTER_NAME":"EARTH","RCS_SIZE":"LARGE","TLE_LINE2":"2 48032  53.0396 272.7315 0002067 142.4317 156.6196 15.90811410  3691","COUNTRY_CODE":"US","EPOCH":"2021-12-24T22:00:00.999936","FILE":"3250462","MEAN_ELEMENT_THEORY":"SGP4","DECAY_DATE":null,"NORAD_CAT_ID":"48032","PERIAPSIS":"298.633","OBJECT_NAME":"STARLINK-2297","LAUNCH_DATE":"2021-03-24","SEMIMAJOR_AXIS":"6678.148","GP_ID":"192397538","MEAN_ANOMALY":"156.6196","APOAPSIS":"301.393","ARG_OF_PERICENTER":"142.4317","MEAN_MOTION_DDOT":"0.0000111520000","CLASSIFICATION_TYPE":"U"},{"REF_FRAME":"TEME","RA_OF_ASC_NODE":"27.7746","PERIOD":"95.592","TLE_LINE1":"1 48033U 21024BJ  21358.49343764  .00002358  00000-0  17713-3 0  9996","OBJECT_TYPE":"PAYLOAD","MEAN_MOTION":"15.06408532","MEAN_MOTION_DOT":"0.00002358","INCLINATION":"53.0560","REV_AT_EPOCH":"4309","ELEMENT_SET_NO":"999","BSTAR":"0.00017713000000","EPHEMERIS_TYPE":"0","SITE":"AFETR","ECCENTRICITY":"0.00018110","OBJECT_ID":"2021-024BJ","TIME_SYSTEM":"UTC","TLE_LINE2":"2 48033  53.0560  27.7746 0001811  54.0959 306.0197 15.06408532 43091","EPOCH":"2021-12-24T11:50:33.012096","COUNTRY_CODE":"US","RCS_SIZE":"LARGE","CENTER_NAME":"EARTH","DECAY_DATE":null,"FILE":"3250080","MEAN_ELEMENT_THEORY":"SGP4","SEMIMAJOR_AXIS":"6925.322","GP_ID":"192363752","NORAD_CAT_ID":"48033","PERIAPSIS":"545.933","LAUNCH_DATE":"2021-03-24","OBJECT_NAME":"STARLINK-2286","MEAN_MOTION_DDOT":"0.0000000000000","CLASSIFICATION_TYPE":"U","ARG_OF_PERICENTER":"54.0959","MEAN_ANOMALY":"306.0197","APOAPSIS":"548.442"},{"OBJECT_TYPE":"PAYLOAD","MEAN_MOTION":"15.06388677","RA_OF_ASC_NODE":"26.6055","REF_FRAME":"TEME","TLE_LINE1":"1 48034U 21024BK  21358.77725952 -.00001075  00000-0 -53325-4 0  9998","PERIOD":"95.593","EPHEMERIS_TYPE":"0","BSTAR":"-0.00005332500000","REV_AT_EPOCH":"4313","INCLINATION":"53.0543","ELEMENT_SET_NO":"999","SITE":"AFETR","ECCENTRICITY":"0.00014570","TIME_SYSTEM":"UTC","OBJECT_ID":"2021-024BK","MEAN_MOTION_DOT":"-0.00001075","DECAY_DATE":null,"MEAN_ELEMENT_THEORY":"SGP4","FILE":"3250462","EPOCH":"2021-12-24T18:39:15.222528","TLE_LINE2":"2 48034  53.0543  26.6055 0001457  68.8819 291.2326 15.06388677 43139","COUNTRY_CODE":"US","RCS_SIZE":"LARGE","CENTER_NAME":"EARTH","CLASSIFICATION_TYPE":"U","MEAN_MOTION_DDOT":"0.0000000000000","ARG_OF_PERICENTER":"68.8819","APOAPSIS":"548.257","MEAN_ANOMALY":"291.2326","GP_ID":"192396537","SEMIMAJOR_AXIS":"6925.383","LAUNCH_DATE":"2021-03-24","OBJECT_NAME":"STARLINK-2288","NORAD_CAT_ID":"48034","PERIAPSIS":"546.239"}];
